ONEWEB-0395             
1 50475U 21132G   24241.48887063 -.00000251  00000+0 -74345-3 0  9992
2 50475  87.8996 152.0551 0002263  75.1888 284.9491 13.11417799129517
ONEWEB-0396             
1 50476U 21132H   24241.54578536 -.00000043  00000+0 -14157-3 0  9996
2 50476  87.9090 106.3733 0001834  74.0563 286.0771 13.18684469134965
ONEWEB-0397             
1 50477U 21132J   24241.86349776  .00000054  00000+0  10545-3 0  9991
2 50477  87.9090 106.3113 0001607  73.1721 286.9588 13.18691532134988
ONEWEB-0399             
1 50479U 21132L   24241.51938873  .00000489  00000+0  13445-2 0  9990
2 50479  87.8989 152.0440 0001906  63.8973 296.2351 13.11418230129402
ONEWEB-0400             
1 50480U 21132M   24241.91884079  .00000083  00000+0  17878-3 0  9999
2 50480  87.9086 106.3008 0001884  86.3422 273.7926 13.18684935134980
ONEWEB-0401             
1 50481U 21132N   24241.88564975  .00000065  00000+0  13270-3 0  9998
2 50481  87.9086 106.3034 0001546  72.7199 287.4102 13.18685237134989
ONEWEB-0402             
1 50482U 21132P   24241.92672411  .00000119  00000+0  26902-3 0  9995
2 50482  87.9087 106.2928 0001133  60.2202 299.9043 13.18688675135017
